IRIDIUM 71 [-]          
1 25320U 98026B   18068.29487975  .00000085  00000-0  20897-4 0  9994
2 25320  86.3979 130.0215 0002828 140.2915 219.8491 14.39136316 41590
IRIDIUM 70 [+]          
1 25342U 98032A   18068.53687841  .00000053  00000-0  11815-4 0  9991
2 25342  86.3943 113.4136 0002141  97.6232 262.5207 14.34221581 37136
IRIDIUM 72 [+]          
1 25343U 98032B   18068.52419225  .00000039  00000-0  69522-5 0  9993
2 25343  86.3936 113.0129 0002222  96.4082 263.7367 14.34221505 37133
IRIDIUM 73 [-]          
1 25344U 98032C   18068.51782116  .00000114  00000-0  24529-4 0  9996
2 25344  86.4381  90.8443 0001681  95.6109 264.5286 14.49099266 45972
IRIDIUM 75 [+]          
1 25346U 98032E   18068.25146212  .00000045  00000-0  89924-5 0  9994
2 25346  86.3940 113.3889 0002237  95.6930 264.4521 14.34221520 37661
IRIDIUM 76 [+]          
1 25432U 98048B   18068.52969995  .00000105  00000-0  27664-4 0  9997
2 25432  86.4286 144.6062 0001840 103.9619 256.1784 14.38740686 23620
IRIDIUM 82 [-]          
1 25467U 98051A   18068.50230399  .00001022  00000-0  74648-4 0  9999
2 25467  86.3970 259.4358 0182438 164.6638 196.0225 14.89763391 26335
IRIDIUM 81 [+]          
1 25468U 98051B   18068.46036901  .00000011  00000-0 -30738-5 0  9999
2 25468  86.4191 270.9277 0001957  79.2846 280.8572 14.38609259 20986
IRIDIUM 80 [+]          
1 25469U 98051C   18068.30672760 -.00000069  00000-0 -31592-4 0  9994
2 25469  86.3921 271.2433 0002492  94.8414   3.9885 14.34216975 20834
IRIDIUM 2 [-]           
1 25527U 98066A   18068.51389425  .00000973  00000-0  47018-4 0  9993
2 25527  85.5285 235.5287 0008691 180.4300 179.6934 15.17223526 58093
IRIDIUM 86 [+]          
1 25528U 98066B   18068.44278557 -.00000062  00000-0 -29125-4 0  9999
2 25528  86.3934 238.8562 0002025 116.6395 243.5009 14.34214275 17386
IRIDIUM 84 [+]          
1 25530U 98066D   18068.47450084 -.00000068  00000-0 -31264-4 0  9995
2 25530  86.3935 239.0121 0001941  87.8759 272.2659 14.34214111 15021
IRIDIUM 83 [+]          
1 25531U 98066E   18068.43647892 -.00000068  00000-0 -31479-4 0  9995
2 25531  86.3938 239.1643 0002014  87.5796 272.5630 14.34213013 12372
IRIDIUM 20 [+]          
1 25577U 98074A   18068.35643340  .00000140  00000-0  43039-4 0  9993
2 25577  86.3987 144.5961 0002230  99.2187 260.9261 14.34216550  6443
IRIDIUM 11 [+]          
1 25578U 98074B   18068.32051470  .00000138  00000-0  42081-4 0  9991
2 25578  86.3995 144.8262 0001940  80.4943 322.5093 14.34217480 15406
IRIDIUM 14 [+]          
1 25777U 99032A   18068.47979268  .00000037  00000-0  63118-5 0  9990
2 25777  86.3938 113.1206 0002181  98.0687 262.0756 14.34221635992707
IRIDIUM 21 [+]          
1 25778U 99032B   18068.51784950  .00000057  00000-0  13445-4 0  9997
2 25778  86.3937 113.1198 0002199  91.8520 268.2928 14.34221734986143
IRIDIUM 91 [+]          
1 27372U 02005A   18068.41697978  .00000162  00000-0  50658-4 0  9999
2 27372  86.4023 176.3375 0001739 103.6318 256.5071 14.34215496849646
IRIDIUM 90 [B]          
1 27373U 02005B   18068.26230895  .00000295  00000-0  22300-4 0  9994
2 27373  86.4350 239.1860 0186391 355.0400   4.8968 14.84851448849579
IRIDIUM 94 [P]          
1 27374U 02005C   18068.52718211  .00000601  00000-0  55207-4 0  9990
2 27374  86.3959 144.7398 0184298 344.7478  14.8229 14.80652823853999
IRIDIUM 95 [+]          
1 27375U 02005D   18068.38532660  .00000163  00000-0  51275-4 0  9991
2 27375  86.4018 176.3630 0001531  80.1066 280.0302 14.34218881848926
IRIDIUM 96 [P]          
1 27376U 02005E   18068.44392875  .00034154 -73354-6  38894-3 0  9998
2 27376  86.3848 203.5248 0312657 230.2557 127.0761 15.20390132854788
IRIDIUM 97 [+]          
1 27450U 02031A   18068.48530948  .00000090  00000-0  22816-4 0  9990
2 27450  86.4261 208.0019 0002120  91.1244 269.0197 14.38606966828251
IRIDIUM 98 [+]          
1 27451U 02031B   18068.15440770 -.00000071  00000-0 -32367-4 0  9991
2 27451  86.3915 271.3856 0001936  98.1920 261.9496 14.34216884829280
